NORAD_CAT_ID,OBJECT_NAME,OBJECT_TYPE,EPOCH,MEAN_MOTION,ECCENTRICITY,INCLINATION,RA_OF_ASC_NODE,ARG_OF_PERICENTER,MEAN_ANOMALY,BSTAR,MEAN_MOTION_DOT,MEAN_MOTION_DDOT,TLE_LINE0,TLE_LINE1,TLE_LINE2,SEMIMAJOR_AXIS,PERIOD,APOGEE,PERIGEE,DECAYED
54767.0,STARLINK-5472,PAYLOAD,2024-02-16 18:12:36,15.08853021,0.000126,53.2163,179.6226,90.5678,269.5459,0.00010764,1.426e-05,0.0,0 STARLINK-5472,1 54767U 22175K   24047.75875401  .00001426  00000-0  10764-3 0  9994,2 54767  53.2163 179.6226 0001260  90.5678 269.5459 15.08853021 64247,6917.841,95.437,540.577,538.834,0.0
54767.0,STARLINK-5472,PAYLOAD,2024-02-17 11:41:52,15.08832691,0.0001459,53.2168,176.3542,91.4333,268.6826,0.00010064,1.314e-05,0.0,0 STARLINK-5472,1 54767U 22175K   24048.48740995  .00001314  00000-0  10064-3 0  9993,2 54767  53.2168 176.3542 0001459  91.4333 268.6826 15.08832691 64355,6917.903,95.438,540.777,538.758,0.0
54767.0,STARLINK-5472,PAYLOAD,2024-02-17 14:52:38,15.08837477,0.0001658,53.2178,175.7591,93.6252,266.4929,0.00013177,1.81e-05,0.0,0 STARLINK-5472,1 54767U 22175K   24048.61988752  .00001810  00000-0  13177-3 0  9992,2 54767  53.2178 175.7591 0001658  93.6252 266.4929 15.08837477 66537,6917.888,95.438,540.9,538.606,0.0
54767.0,STARLINK-5472,PAYLOAD,2024-02-18 14:43:25,15.08839067,0.0001427,53.2181,171.2966,92.3259,267.7897,-8.0543e-05,-1.57e-05,0.0,0 STARLINK-5472,1 54767U 22175K   24049.61349438 -.00001570  00000-0 -80543-4 0  9992,2 54767  53.2181 171.2966 0001427  92.3259 267.7897 15.08839067 66686,6917.883,95.438,540.735,538.761,0.0
54767.0,STARLINK-5472,PAYLOAD,2024-02-18 17:54:11,15.08841795,0.0001351,53.2176,170.7007,92.6343,267.4804,-5.503e-05,-1.164e-05,0.0,0 STARLINK-5472,1 54767U 22175K   24049.74597184 -.00001164  00000-0 -55030-4 0  9991,2 54767  53.2176 170.7007 0001351  92.6343 267.4804 15.08841795 64542,6917.875,95.437,540.675,538.805,0.0
54767.0,STARLINK-5472,PAYLOAD,2024-02-19 14:34:12,15.08843683,0.0001274,53.2181,166.8385,89.8503,270.2636,0.00011882,1.604e-05,0.0,0 STARLINK-5472,1 54767U 22175K   24050.60708979  .00001604  00000-0  11882-3 0  9997,2 54767  53.2181 166.8385 0001274  89.8503 270.2636 15.08843683 66830,6917.869,95.437,540.615,538.853,0.0
54767.0,STARLINK-5472,PAYLOAD,2024-02-20 11:14:13,15.08838613,0.0001171,53.2172,162.9753,89.3103,270.8024,7.2662e-05,8.69e-06,0.0,0 STARLINK-5472,1 54767U 22175K   24051.46821727  .00000869  00000-0  72662-4 0  9995,2 54767  53.2172 162.9753 0001171  89.3103 270.8024 15.08838613 64802,6917.885,95.438,540.56,538.94,0.0
54767.0,STARLINK-5472,PAYLOAD,2024-02-20 14:24:59,15.08842241,0.0001206,53.2177,162.3822,94.6487,265.4642,0.00010361,1.362e-05,0.0,0 STARLINK-5472,1 54767U 22175K   24051.60069424  .00001362  00000-0  10361-3 0  9995,2 54767  53.2177 162.3822 0001206  94.6487 265.4642 15.08842241 66980,6917.874,95.437,540.573,538.904,0.0
54767.0,STARLINK-5472,PAYLOAD,2024-02-21 14:15:47,15.08837362,0.0001341,53.2171,157.9216,102.3128,257.8014,1.0983e-05,-1.13e-06,0.0,0 STARLINK-5472,1 54767U 22175K   24052.59430020 -.00000113  00000-0  10983-4 0  9993,2 54767  53.2171 157.9216 0001341 102.3128 257.8014 15.08837362 67134,6917.888,95.438,540.681,538.826,0.0
54767.0,STARLINK-5472,PAYLOAD,2024-02-22 14:06:34,15.08845099,0.0001398,53.2167,153.461,103.8527,256.2621,5.7355e-05,6.25e-06,0.0,0 STARLINK-5472,1 54767U 22175K   24053.58789458  .00000625  00000-0  57355-4 0  9996,2 54767  53.2167 153.4610 0001398 103.8527 256.2621 15.08845099 67288,6917.865,95.437,540.697,538.763,0.0
54767.0,STARLINK-5472,PAYLOAD,2024-02-23 13:57:21,15.08811585,0.0001643,53.2165,148.9977,90.1062,270.0119,0.00059529,9.191e-05,0.0,0 STARLINK-5472,1 54767U 22175K   24054.58150033  .00009191  00000-0  59529-3 0  9999,2 54767  53.2165 148.9977 0001643  90.1062 270.0119 15.08811585 67432,6917.967,95.439,540.969,538.696,0.0
54767.0,STARLINK-5472,PAYLOAD,2024-02-23 23:29:40,15.08838052,0.0001466,53.2164,147.2132,85.189,274.9269,0.00012982,1.779e-05,0.0,0 STARLINK-5472,1 54767U 22175K   24054.97893694  .00001779  00000-0  12982-3 0  9995,2 54767  53.2164 147.2132 0001466  85.1890 274.9269 15.08838052 65336,6917.886,95.438,540.766,538.737,0.0
54767.0,STARLINK-5472,PAYLOAD,2024-02-24 12:12:45,15.08840758,0.0001419,53.2159,144.8332,89.8944,270.221,6.3161e-06,-1.87e-06,0.0,0 STARLINK-5472,1 54767U 22175K   24055.50885845 -.00000187  00000-0  63161-5 0  9994,2 54767  53.2159 144.8332 0001419  89.8944 270.2210 15.08840758 67573,6917.878,95.438,540.725,538.761,0.0
54767.0,STARLINK-5472,PAYLOAD,2024-02-24 15:23:31,15.08845288,0.0001499,53.2164,144.2378,91.647,268.4694,4.8904e-05,4.91e-06,0.0,0 STARLINK-5472,1 54767U 22175K   24055.64133432  .00000491  00000-0  48904-4 0  9991,2 54767  53.2164 144.2378 0001499  91.6470 268.4694 15.08845288 67596,6917.864,95.437,540.766,538.692,0.0
54767.0,STARLINK-5472,PAYLOAD,2024-02-25 12:03:31,15.08849919,0.0001532,53.2172,140.3711,96.3605,263.7561,3.022e-05,1.93e-06,0.0,0 STARLINK-5472,1 54767U 22175K   24056.50245005  .00000193  00000-0  30220-4 0  9998,2 54767  53.2172 140.3711 0001532  96.3605 263.7561 15.08849919 65564,6917.85,95.437,540.775,538.655,0.0
54767.0,STARLINK-5472,PAYLOAD,2024-02-26 11:54:20,15.08832571,0.0001694,53.2178,135.9105,102.957,257.1611,-2.932e-05,-7.55e-06,0.0,0 STARLINK-5472,1 54767U 22175K   24057.49606548 -.00000755  00000-0 -29320-4 0  9995,2 54767  53.2178 135.9105 0001694 102.9570 257.1611 15.08832571 65717,6917.903,95.438,540.94,538.596,0.0
54767.0,STARLINK-5472,PAYLOAD,2024-02-26 15:05:06,15.08834566,0.0001497,53.2172,135.3154,93.0055,267.1108,-1.674e-05,-5.54e-06,0.0,0 STARLINK-5472,1 54767U 22175K   24057.62854449 -.00000554  00000-0 -16740-4 0  9994,2 54767  53.2172 135.3154 0001497  93.0055 267.1108 15.08834566 67897,6917.897,95.438,540.798,538.726,0.0
54767.0,STARLINK-5472,PAYLOAD,2024-02-27 11:45:05,15.08855791,0.0001469,53.2173,131.4538,92.702,267.414,0.00010394,1.367e-05,0.0,0 STARLINK-5472,1 54767U 22175K   24058.48964505  .00001367  00000-0  10394-3 0  9993,2 54767  53.2173 131.4538 0001469  92.7020 267.4140 15.08855791 65865,6917.832,95.437,540.713,538.681,0.0
54767.0,STARLINK-5472,PAYLOAD,2024-02-27 21:17:21,15.08879879,0.0001597,53.2178,129.6679,103.414,256.703,0.00041163,6.276e-05,0.0,0 STARLINK-5472,1 54767U 22175K   24058.88705418  .00006276  00000-0  41163-3 0  9995,2 54767  53.2178 129.6679 0001597 103.4140 256.7030 15.08879879 68089,6917.758,95.435,540.728,538.519,0.0
54767.0,STARLINK-5472,PAYLOAD,2024-02-28 11:35:56,15.08798495,0.0001566,53.218,126.9928,90.9926,269.1246,-0.00023756,-4.062e-05,0.0,0 STARLINK-5472,1 54767U 22175K   24059.48329439 -.00004062  00000-0 -23756-3 0  9998,2 54767  53.2180 126.9928 0001566  90.9926 269.1246 15.08798495 66019,6918.007,95.44,540.956,538.789,0.0
54767.0,STARLINK-5472,PAYLOAD,2024-02-28 21:08:15,15.08812161,0.0001572,53.2183,125.2087,90.5405,269.5767,-0.00017967,-3.144e-05,0.0,0 STARLINK-5472,1 54767U 22175K   24059.88072982 -.00003144  00000-0 -17967-3 0  9997,2 54767  53.2183 125.2087 0001572  90.5405 269.5767 15.08812161 66070,6917.965,95.439,540.918,538.743,0.0
54767.0,STARLINK-5472,PAYLOAD,2024-02-29 13:02:04,15.08835261,0.0001422,53.2157,122.2333,89.0918,271.0237,-2.9661e-05,-7.6e-06,0.0,0 STARLINK-5472,1 54767U 22175K   24060.54311191 -.00000760  00000-0 -29661-4 0  9996,2 54767  53.2157 122.2333 0001422  89.0918 271.0237 15.08835261 66175,6917.895,95.438,540.744,538.776,0.0
54767.0,STARLINK-5472,PAYLOAD,2024-02-29 14:37:28,15.08833812,0.000137,53.2148,121.9355,89.0492,271.0657,0.00025571,3.783e-05,0.0,0 STARLINK-5472,1 54767U 22175K   24060.60935551  .00003783  00000-0  25571-3 0  9996,2 54767  53.2148 121.9355 0001370  89.0492 271.0657 15.08833812 68341,6917.899,95.438,540.712,538.817,0.0
54767.0,STARLINK-5472,PAYLOAD,2024-03-01 12:52:52,15.08876213,0.0001445,53.2141,117.7724,88.8247,271.291,0.0016915,0.00026762,0.0,0 STARLINK-5472,1 54767U 22175K   24061.53671467  .00026762  00000-0  16915-2 0  9995,2 54767  53.2141 117.7724 0001445  88.8247 271.2910 15.08876213 68486,6917.77,95.435,540.634,538.635,0.0
54767.0,STARLINK-5472,PAYLOAD,2024-03-02 09:32:52,15.08862129,0.0001669,53.2161,113.904,88.407,271.7113,0.00074577,0.00011608,0.0,0 STARLINK-5472,1 54767U 22175K   24062.39782779  .00011608  00000-0  74577-3 0  9991,2 54767  53.2161 113.9040 0001669  88.4070 271.7113 15.08862129 66451,6917.813,95.436,540.832,538.523,0.0
54767.0,STARLINK-5472,PAYLOAD,2024-03-03 03:02:06,15.08850882,0.000192,53.2162,110.637,88.094,272.0272,0.00069984,0.00010871,0.0,0 STARLINK-5472,1 54767U 22175K   24063.12646760  .00010871  00000-0  69984-3 0  9999,2 54767  53.2162 110.6370 0001920  88.0940 272.0272 15.08850882 66569,6917.847,95.437,541.04,538.384,0.0
54767.0,STARLINK-5472,PAYLOAD,2024-03-03 09:23:39,15.08853487,0.000184,53.2163,109.4466,96.5993,263.5208,0.00039659,6.032e-05,0.0,0 STARLINK-5472,1 54767U 22175K   24063.39142447  .00006032  00000-0  39659-3 0  9991,2 54767  53.2163 109.4466 0001840  96.5993 263.5208 15.08853487 68767,6917.839,95.437,540.977,538.431,0.0
54767.0,STARLINK-5472,PAYLOAD,2024-03-04 02:52:53,15.08849411,0.0001713,53.2162,106.178,94.7843,265.3344,0.00032646,4.913e-05,0.0,0 STARLINK-5472,1 54767U 22175K   24064.12006470  .00004913  00000-0  32646-3 0  9993,2 54767  53.2162 106.1780 0001713  94.7843 265.3344 15.08849411 66718,6917.852,95.437,540.902,538.532,0.0
54767.0,STARLINK-5472,PAYLOAD,2024-03-04 09:14:25,15.08850234,0.0001769,53.2168,104.9888,97.2916,262.8277,0.00020289,2.943e-05,0.0,0 STARLINK-5472,1 54767U 22175K   24064.38502266  .00002943  00000-0  20289-3 0  9996,2 54767  53.2168 104.9888 0001769  97.2916 262.8277 15.08850234 68915,6917.849,95.437,540.938,538.49,0.0
54767.0,STARLINK-5472,PAYLOAD,2024-03-05 02:43:41,15.08833549,0.0001581,53.2157,101.7178,87.7848,272.3325,1.2039e-05,-9.6e-07,0.0,0 STARLINK-5472,1 54767U 22175K   24065.11367185 -.00000096  00000-0  12039-4 0  9990,2 54767  53.2157 101.7178 0001581  87.7848 272.3325 15.08833549 66862,6917.9,95.438,540.859,538.671,0.0
